{
"type": "FeatureCollection",
"name": "nasr_city_pois",
"crs": { "type": "name", "properties": { "name": "urn:ogc:def:crs:OGC:1.3:CRS84" } },
"features": [
{ "type": "Feature", "properties": { "place_id": "osm-node-287531671", "name": "الصديق", "name:en": "Al-Sedeek", "category": "school", "amenity": "school", "religion": null, "shop": null, "tourism": null, "historic": null, "source": "OpenStreetMap" }, "geometry": { "type": "Point", "coordinates": [ 31.3540462, 30.0482832 ] } },
{ "type": "Feature", "properties": { "place_id": "osm-node-287531809", "name": "الملك فهد", "name:en": "King Fahd", "category": "school", "amenity": "school", "religion": null, "shop": null, "tourism": null, "historic": null, "source": "OpenStreetMap" }, "geometry": { "type": "Point", "coordinates": [ 31.3432745, 30.0471539 ] } },
{ "type": "Feature", "properties": { "place_id": "osm-node-295455008", "name": "الشربيني", "name:en": "Al-Sherbiny", "category": "mosque", "amenity": "place_of_worship", "religion": "muslim", "shop": null, "tourism": null, "historic": null, "source": "OpenStreetMap" }, "geometry": { "type": "Point", "coordinates": [ 31.3402585, 30.0502545 ] } },
{ "type": "Feature", "properties": { "place_id": "osm-node-442338122", "name": "قسم أول مدينة نصر", "name:en": "Nasr City First Police Station", "category": "police", "amenity": "police", "religion": null, "shop": null, "tourism": null, "historic": null, "source": "OpenStreetMap" }, "geometry": { "type": "Point", "coordinates": [ 31.3411596, 30.0687969 ] } },
{ "type": "Feature", "properties": { "place_id": "osm-node-443368252", "name": "دار الأرقم", "name:en": "Dar Al Arkam", "category": "mosque", "amenity": "place_of_worship", "religion": "muslim", "shop": null, "tourism": null, "historic": null, "source": "OpenStreetMap" }, "geometry": { "type": "Point", "coordinates": [ 31.3507821, 30.0580307 ] } },
{ "type": "Feature", "properties": { "place_id": "osm-node-443368255", "name": "مركز الإيمان الطبي", "name:en": "El Eman Medical Center", "category": "hospital", "amenity": "hospital", "religion": null, "shop": null, "tourism": null, "historic": null, "source": "OpenStreetMap" }, "geometry": { "type": "Point", "coordinates": [ 31.3455818, 30.0642054 ] } },
{ "type": "Feature", "properties": { "place_id": "osm-node-511981281", "name": null, "name:en": null, "category": "mosque", "amenity": "place_of_worship", "religion": "muslim", "shop": null, "tourism": null, "historic": null, "source": "OpenStreetMap" }, "geometry": { "type": "Point", "coordinates": [ 31.3422711, 30.0798407 ] } },
{ "type": "Feature", "properties": { "place_id": "osm-node-512417734", "name": null, "name:en": null, "category": "fire_station", "amenity": "fire_station", "religion": null, "shop": null, "tourism": null, "historic": null, "source": "OpenStreetMap" }, "geometry": { "type": "Point", "coordinates": [ 31.3689579, 30.0672492 ] } },
{ "type": "Feature", "properties": { "place_id": "osm-node-523254716", "name": null, "name:en": null, "category": "hospital", "amenity": "hospital", "religion": null, "shop": null, "tourism": null, "historic": null, "source": "OpenStreetMap" }, "geometry": { "type": "Point", "coordinates": [ 31.3270141, 30.062687 ] } },
{ "type": "Feature", "properties": { "place_id": "osm-node-678457933", "name": "السيدة صفية", "name:en": "Masged Al-Sayeda Safeya", "category": "mosque", "amenity": "place_of_worship", "religion": "muslim", "shop": null, "tourism": null, "historic": null, "source": "OpenStreetMap" }, "geometry": { "type": "Point", "coordinates": [ 31.321756, 30.0832663 ] } },
{ "type": "Feature", "properties": { "place_id": "osm-node-678457937", "name": "مستشفى الميرغنى", "name:en": "El Merghany hospital", "category": "hospital", "amenity": "hospital", "religion": null, "shop": null, "tourism": null, "historic": null, "source": "OpenStreetMap" }, "geometry": { "type": "Point", "coordinates": [ 31.3317412, 30.0815072 ] } },
{ "type": "Feature", "properties": { "place_id": "osm-node-678457944", "name": "جمال الدين عبد الخالق عامر", "name:en": "Gamal Al-Din Abdel-Khaleq Amer", "category": "mosque", "amenity": "place_of_worship", "religion": "muslim", "shop": null, "tourism": null, "historic": null, "source": "OpenStreetMap" }, "geometry": { "type": "Point", "coordinates": [ 31.340828, 30.0822901 ] } },
{ "type": "Feature", "properties": { "place_id": "osm-node-740750128", "name": "مدينة نصر الثانوية الصناعية", "name:en": "Nasr City Technical", "category": "school", "amenity": "school", "religion": null, "shop": null, "tourism": null, "historic": null, "source": "OpenStreetMap" }, "geometry": { "type": "Point", "coordinates": [ 31.3337305, 30.0583321 ] } },
{ "type": "Feature", "properties": { "place_id": "osm-node-836046275", "name": "Bayan", "name:en": "El Bayan Modern School", "category": "school", "amenity": "school", "religion": null, "shop": null, "tourism": null, "historic": null, "source": "OpenStreetMap" }, "geometry": { "type": "Point", "coordinates": [ 31.36312, 30.051974 ] } },
{ "type": "Feature", "properties": { "place_id": "osm-node-963410248", "name": "السيدة حفصة", "name:en": "Al-Sayeda Hafsa", "category": "mosque", "amenity": "place_of_worship", "religion": "muslim", "shop": null, "tourism": null, "historic": null, "source": "OpenStreetMap" }, "geometry": { "type": "Point", "coordinates": [ 31.3348212, 30.0822834 ] } },
{ "type": "Feature", "properties": { "place_id": "osm-node-1057833166", "name": "مسجد الحمد", "name:en": "Al-Hamd Mosque", "category": "mosque", "amenity": "place_of_worship", "religion": "muslim", "shop": null, "tourism": null, "historic": null, "source": "OpenStreetMap" }, "geometry": { "type": "Point", "coordinates": [ 31.3399477, 30.0468029 ] } },
{ "type": "Feature", "properties": { "place_id": "osm-node-1373306821", "name": "مسجد الرحمن", "name:en": "Al-Rahman Mosque", "category": "mosque", "amenity": "place_of_worship", "religion": "muslim", "shop": null, "tourism": null, "historic": null, "source": "OpenStreetMap" }, "geometry": { "type": "Point", "coordinates": [ 31.3303302, 30.0843704 ] } },
{ "type": "Feature", "properties": { "place_id": "osm-node-1438270139", "name": "منظمه الصحه العالمية", "name:en": "World Health Organisation", "category": "hospital", "amenity": "hospital", "religion": null, "shop": null, "tourism": null, "historic": null, "source": "OpenStreetMap" }, "geometry": { "type": "Point", "coordinates": [ 31.3473432, 30.0637093 ] } },
{ "type": "Feature", "properties": { "place_id": "osm-node-1479227949", "name": "الحمد", "name:en": "Al-Hamd Mosque", "category": "mosque", "amenity": "place_of_worship", "religion": "muslim", "shop": null, "tourism": null, "historic": null, "source": "OpenStreetMap" }, "geometry": { "type": "Point", "coordinates": [ 31.349432, 30.0667181 ] } },
{ "type": "Feature", "properties": { "place_id": "osm-node-3966612431", "name": "عيادة د. احمد العساف", "name:en": null, "category": "clinic", "amenity": "clinic", "religion": null, "shop": null, "tourism": null, "historic": null, "source": "OpenStreetMap" }, "geometry": { "type": "Point", "coordinates": [ 31.3392842, 30.0464585 ] } },
{ "type": "Feature", "properties": { "place_id": "osm-node-4258032990", "name": "7ay l 10", "name:en": null, "category": "landmark", "amenity": null, "religion": null, "shop": null, "tourism": "attraction", "historic": null, "source": "OpenStreetMap" }, "geometry": { "type": "Point", "coordinates": [ 31.3790205, 30.0491881 ] } },
{ "type": "Feature", "properties": { "place_id": "osm-node-4362086147", "name": "مستشفى العاملين بقطاع البترول", "name:en": "Petroleum Hospital", "category": "hospital", "amenity": "hospital", "religion": null, "shop": null, "tourism": null, "historic": null, "source": "OpenStreetMap" }, "geometry": { "type": "Point", "coordinates": [ 31.3465042, 30.0646977 ] } },
{ "type": "Feature", "properties": { "place_id": "osm-node-4401010991", "name": "مدرسه حسان بن ثابت الابتدائيه", "name:en": "Hassan Ibn Thabet Primary School", "category": "school", "amenity": "school", "religion": null, "shop": null, "tourism": null, "historic": null, "source": "OpenStreetMap" }, "geometry": { "type": "Point", "coordinates": [ 31.3657478, 30.054675 ] } },
{ "type": "Feature", "properties": { "place_id": "osm-node-4455285690", "name": "مسجد الرحمن", "name:en": "El Rahman Mosque", "category": "mosque", "amenity": "place_of_worship", "religion": "muslim", "shop": null, "tourism": null, "historic": null, "source": "OpenStreetMap" }, "geometry": { "type": "Point", "coordinates": [ 31.3357722, 30.0770614 ] } },
{ "type": "Feature", "properties": { "place_id": "osm-node-4469632892", "name": "د. ممدوح لبيب", "name:en": "Offshore Medical Dr. Labib", "category": "clinic", "amenity": "clinic", "religion": null, "shop": null, "tourism": null, "historic": null, "source": "OpenStreetMap" }, "geometry": { "type": "Point", "coordinates": [ 31.3238183, 30.0724682 ] } },
{ "type": "Feature", "properties": { "place_id": "osm-node-4469638394", "name": "جراج مترو", "name:en": "Home Parking", "category": "police", "amenity": "police", "religion": null, "shop": null, "tourism": null, "historic": null, "source": "OpenStreetMap" }, "geometry": { "type": "Point", "coordinates": [ 31.3305063, 30.0603708 ] } },
{ "type": "Feature", "properties": { "place_id": "osm-node-4558229689", "name": null, "name:en": "fit life - Dr Sameh Mohsen", "category": "clinic", "amenity": "clinic", "religion": null, "shop": null, "tourism": null, "historic": null, "source": "OpenStreetMap" }, "geometry": { "type": "Point", "coordinates": [ 31.3279802, 30.0536604 ] } },
{ "type": "Feature", "properties": { "place_id": "osm-node-4561090493", "name": "مستشفي جمال ابو العزايم", "name:en": null, "category": "hospital", "amenity": "hospital", "religion": null, "shop": null, "tourism": null, "historic": null, "source": "OpenStreetMap" }, "geometry": { "type": "Point", "coordinates": [ 31.330529, 30.0559906 ] } },
{ "type": "Feature", "properties": { "place_id": "osm-node-4691356889", "name": "سنتر ايليت", "name:en": "Elite Center", "category": "landmark", "amenity": null, "religion": null, "shop": null, "tourism": "attraction", "historic": null, "source": "OpenStreetMap" }, "geometry": { "type": "Point", "coordinates": [ 31.349513, 30.060006 ] } },
{ "type": "Feature", "properties": { "place_id": "osm-node-4705680490", "name": "مسجد الزهراء", "name:en": "Masjid AlZahraa mosque", "category": "mosque", "amenity": "place_of_worship", "religion": "muslim", "shop": null, "tourism": null, "historic": null, "source": "OpenStreetMap" }, "geometry": { "type": "Point", "coordinates": [ 31.3817545, 30.0508818 ] } },
{ "type": "Feature", "properties": { "place_id": "osm-node-4723058890", "name": "نسرين", "name:en": null, "category": "landmark", "amenity": null, "religion": null, "shop": null, "tourism": "attraction", "historic": null, "source": "OpenStreetMap" }, "geometry": { "type": "Point", "coordinates": [ 31.3686849, 30.0680542 ] } },
{ "type": "Feature", "properties": { "place_id": "osm-node-4743822321", "name": "مس إيرينى", "name:en": null, "category": "school", "amenity": "school", "religion": null, "shop": null, "tourism": null, "historic": null, "source": "OpenStreetMap" }, "geometry": { "type": "Point", "coordinates": [ 31.3409817, 30.0810958 ] } },
{ "type": "Feature", "properties": { "place_id": "osm-node-4822481526", "name": "سنتر ميراج", "name:en": "Center mirage", "category": "school", "amenity": "school", "religion": null, "shop": null, "tourism": null, "historic": null, "source": "OpenStreetMap" }, "geometry": { "type": "Point", "coordinates": [ 31.3331087, 30.0447659 ] } },
{ "type": "Feature", "properties": { "place_id": "osm-node-5122232721", "name": "مستشفى الكبد د يس عبد الغفار الخيرية", "name:en": "Yassin Abdulghaffar Hepatology Center", "category": "hospital", "amenity": "hospital", "religion": null, "shop": null, "tourism": null, "historic": null, "source": "OpenStreetMap" }, "geometry": { "type": "Point", "coordinates": [ 31.346945, 30.0648509 ] } },
{ "type": "Feature", "properties": { "place_id": "osm-node-5129741021", "name": "عمارة ٥٤", "name:en": null, "category": "landmark", "amenity": null, "religion": null, "shop": null, "tourism": null, "historic": "memorial", "source": "OpenStreetMap" }, "geometry": { "type": "Point", "coordinates": [ 31.3622308, 30.060033 ] } },
{ "type": "Feature", "properties": { "place_id": "osm-node-5134665939", "name": "مدرسة المنهل الخاصة", "name:en": null, "category": "school", "amenity": "school", "religion": null, "shop": null, "tourism": null, "historic": null, "source": "OpenStreetMap" }, "geometry": { "type": "Point", "coordinates": [ 31.3576569, 30.0555088 ] } },
{ "type": "Feature", "properties": { "place_id": "osm-node-5134665947", "name": "مركز طبي الحى الثامن", "name:en": null, "category": "hospital", "amenity": "hospital", "religion": null, "shop": null, "tourism": null, "historic": null, "source": "OpenStreetMap" }, "geometry": { "type": "Point", "coordinates": [ 31.35774, 30.0561602 ] } },
{ "type": "Feature", "properties": { "place_id": "osm-node-5134666024", "name": "ايجيكير", "name:en": null, "category": "hospital", "amenity": "hospital", "religion": null, "shop": null, "tourism": null, "historic": null, "source": "OpenStreetMap" }, "geometry": { "type": "Point", "coordinates": [ 31.3603878, 30.0597161 ] } },
{ "type": "Feature", "properties": { "place_id": "osm-node-5134666532", "name": "مركز طبي الحى الثامن", "name:en": null, "category": "hospital", "amenity": "hospital", "religion": null, "shop": null, "tourism": null, "historic": null, "source": "OpenStreetMap" }, "geometry": { "type": "Point", "coordinates": [ 31.3576391, 30.0553351 ] } },
{ "type": "Feature", "properties": { "place_id": "osm-node-5240364221", "name": "التبة", "name:en": null, "category": "landmark", "amenity": null, "religion": null, "shop": null, "tourism": "attraction", "historic": null, "source": "OpenStreetMap" }, "geometry": { "type": "Point", "coordinates": [ 31.3779325, 30.0608498 ] } },
{ "type": "Feature", "properties": { "place_id": "osm-node-5287456022", "name": "Teleperformance - City Walk", "name:en": "New Cairo Convention Centre", "category": "landmark", "amenity": null, "religion": null, "shop": null, "tourism": "attraction", "historic": null, "source": "OpenStreetMap" }, "geometry": { "type": "Point", "coordinates": [ 31.3882026, 30.0164661 ] } },
{ "type": "Feature", "properties": { "place_id": "osm-node-5345022824", "name": null, "name:en": "Main Entrance Gate", "category": "landmark", "amenity": null, "religion": null, "shop": null, "tourism": "attraction", "historic": null, "source": "OpenStreetMap" }, "geometry": { "type": "Point", "coordinates": [ 31.3897913, 30.0169542 ] } },
{ "type": "Feature", "properties": { "place_id": "osm-node-5383243322", "name": "الجولف ميموريال", "name:en": "Golf Memorial Hospital", "category": "clinic", "amenity": "clinic", "religion": null, "shop": null, "tourism": null, "historic": null, "source": "OpenStreetMap" }, "geometry": { "type": "Point", "coordinates": [ 31.3372636, 30.0790385 ] } },
{ "type": "Feature", "properties": { "place_id": "osm-node-5383244422", "name": null, "name:en": "Golf Memorial Hospital", "category": "hospital", "amenity": "hospital", "religion": null, "shop": null, "tourism": null, "historic": null, "source": "OpenStreetMap" }, "geometry": { "type": "Point", "coordinates": [ 31.3372837, 30.0790241 ] } },
{ "type": "Feature", "properties": { "place_id": "osm-node-5859605285", "name": "منارة هليوبوليس المتكاملة للغات", "name:en": "Manaret Heliopolis Language School", "category": "school", "amenity": "school", "religion": null, "shop": null, "tourism": null, "historic": null, "source": "OpenStreetMap" }, "geometry": { "type": "Point", "coordinates": [ 31.3629945, 30.05288 ] } },
{ "type": "Feature", "properties": { "place_id": "osm-node-5927199777", "name": "مدرسة الراية", "name:en": null, "category": "school", "amenity": "school", "religion": null, "shop": null, "tourism": null, "historic": null, "source": "OpenStreetMap" }, "geometry": { "type": "Point", "coordinates": [ 31.3687761, 30.0585002 ] } },
{ "type": "Feature", "properties": { "place_id": "osm-node-6001713409", "name": "El-Moamen Al-Mohaimen", "name:en": null, "category": "mosque", "amenity": "place_of_worship", "religion": "muslim", "shop": null, "tourism": null, "historic": null, "source": "OpenStreetMap" }, "geometry": { "type": "Point", "coordinates": [ 31.3744228, 30.0581587 ] } },
{ "type": "Feature", "properties": { "place_id": "osm-node-6548637385", "name": "مركز نيروكير", "name:en": "Neurocare", "category": "clinic", "amenity": "clinic", "religion": null, "shop": null, "tourism": null, "historic": null, "source": "OpenStreetMap" }, "geometry": { "type": "Point", "coordinates": [ 31.3286219, 30.0508411 ] } },
{ "type": "Feature", "properties": { "place_id": "osm-node-6570198861", "name": null, "name:en": "Ruwaq Jawi Malaysia", "category": "school", "amenity": "school", "religion": null, "shop": null, "tourism": null, "historic": null, "source": "OpenStreetMap" }, "geometry": { "type": "Point", "coordinates": [ 31.3329877, 30.0390189 ] } },
{ "type": "Feature", "properties": { "place_id": "osm-node-7266633050", "name": "دكتورة جميلة محمد نصر، القلب و الأوعية الدموية", "name:en": "Gamila Mohamed Nasr ,Cardiology", "category": "clinic", "amenity": "clinic", "religion": null, "shop": null, "tourism": null, "historic": null, "source": "OpenStreetMap" }, "geometry": { "type": "Point", "coordinates": [ 31.3417916, 30.0798217 ] } },
{ "type": "Feature", "properties": { "place_id": "osm-node-7973148688", "name": "عيادات سيمويا الايطالية للتجميل SIMOE Italian Beauty Clinics", "name:en": null, "category": "clinic", "amenity": "clinic", "religion": null, "shop": null, "tourism": null, "historic": null, "source": "OpenStreetMap" }, "geometry": { "type": "Point", "coordinates": [ 31.339633, 30.0754592 ] } },
{ "type": "Feature", "properties": { "place_id": "osm-node-8279721117", "name": "شقة مصر نصر", "name:en": null, "category": "landmark", "amenity": null, "religion": null, "shop": null, "tourism": "attraction", "historic": null, "source": "OpenStreetMap" }, "geometry": { "type": "Point", "coordinates": [ 31.3464302, 30.0457664 ] } },
{ "type": "Feature", "properties": { "place_id": "osm-node-9165743652", "name": "د. ملك نادر", "name:en": "Dr. Malak Nader", "category": "clinic", "amenity": "clinic", "religion": null, "shop": null, "tourism": null, "historic": null, "source": "OpenStreetMap" }, "geometry": { "type": "Point", "coordinates": [ 31.352549, 30.0556972 ] } },
{ "type": "Feature", "properties": { "place_id": "osm-node-9611200144", "name": null, "name:en": null, "category": "school", "amenity": "school", "religion": null, "shop": null, "tourism": null, "historic": null, "source": "OpenStreetMap" }, "geometry": { "type": "Point", "coordinates": [ 31.3680643, 30.0527139 ] } },
{ "type": "Feature", "properties": { "place_id": "osm-node-9612404214", "name": null, "name:en": null, "category": "school", "amenity": "school", "religion": null, "shop": null, "tourism": null, "historic": null, "source": "OpenStreetMap" }, "geometry": { "type": "Point", "coordinates": [ 31.3742942, 30.0542641 ] } },
{ "type": "Feature", "properties": { "place_id": "osm-node-9612404215", "name": null, "name:en": null, "category": "school", "amenity": "school", "religion": null, "shop": null, "tourism": null, "historic": null, "source": "OpenStreetMap" }, "geometry": { "type": "Point", "coordinates": [ 31.3746246, 30.0539187 ] } },
{ "type": "Feature", "properties": { "place_id": "osm-node-9625746941", "name": null, "name:en": null, "category": "school", "amenity": "school", "religion": null, "shop": null, "tourism": null, "historic": null, "source": "OpenStreetMap" }, "geometry": { "type": "Point", "coordinates": [ 31.3626489, 30.0521103 ] } },
{ "type": "Feature", "properties": { "place_id": "osm-node-9625746942", "name": null, "name:en": null, "category": "school", "amenity": "school", "religion": null, "shop": null, "tourism": null, "historic": null, "source": "OpenStreetMap" }, "geometry": { "type": "Point", "coordinates": [ 31.362665, 30.0519989 ] } },
{ "type": "Feature", "properties": { "place_id": "osm-node-9627356317", "name": "هيئ تعاونيات البناء", "name:en": null, "category": "landmark", "amenity": null, "religion": null, "shop": null, "tourism": "attraction", "historic": null, "source": "OpenStreetMap" }, "geometry": { "type": "Point", "coordinates": [ 31.3469807, 30.050965 ] } },
{ "type": "Feature", "properties": { "place_id": "osm-node-9642835955", "name": "مدرسه الالسن للغات", "name:en": "Alsun Language School", "category": "school", "amenity": "school", "religion": null, "shop": null, "tourism": null, "historic": null, "source": "OpenStreetMap" }, "geometry": { "type": "Point", "coordinates": [ 31.3484681, 30.0475517 ] } },
{ "type": "Feature", "properties": { "place_id": "osm-node-9642835960", "name": "مسجد مصطفي كامل رشدي", "name:en": "Moustafa Kamal Roshdy Mosque", "category": "mosque", "amenity": "place_of_worship", "religion": "muslim", "shop": null, "tourism": null, "historic": null, "source": "OpenStreetMap" }, "geometry": { "type": "Point", "coordinates": [ 31.3281584, 30.0840463 ] } },
{ "type": "Feature", "properties": { "place_id": "osm-node-9660893188", "name": "مدرسة مدينة نصر الثانوية الفنية التجارية بنات", "name:en": "Nasr City Technical Commercial Secondary School For Girls", "category": "school", "amenity": "school", "religion": null, "shop": null, "tourism": null, "historic": null, "source": "OpenStreetMap" }, "geometry": { "type": "Point", "coordinates": [ 31.3535425, 30.0529457 ] } },
{ "type": "Feature", "properties": { "place_id": "osm-node-9689605040", "name": "مدرسة جمال عبد الناصر التجريبية", "name:en": "Gamal Abdel Nasser Experimental School", "category": "school", "amenity": "school", "religion": null, "shop": null, "tourism": null, "historic": null, "source": "OpenStreetMap" }, "geometry": { "type": "Point", "coordinates": [ 31.3337401, 30.0430439 ] } },
{ "type": "Feature", "properties": { "place_id": "osm-node-9837910512", "name": "تكنولوجي مول", "name:en": "Technology Mall", "category": "mall", "amenity": null, "religion": null, "shop": "mall", "tourism": null, "historic": null, "source": "OpenStreetMap" }, "geometry": { "type": "Point", "coordinates": [ 31.348158, 30.0509552 ] } },
{ "type": "Feature", "properties": { "place_id": "osm-node-9877549318", "name": "Masr 5614", "name:en": null, "category": "landmark", "amenity": null, "religion": null, "shop": null, "tourism": "attraction", "historic": null, "source": "OpenStreetMap" }, "geometry": { "type": "Point", "coordinates": [ 31.3400787, 30.0617969 ] } },
{ "type": "Feature", "properties": { "place_id": "osm-node-9886904117", "name": "مدرسة سمبيات ابيولا", "name:en": null, "category": "school", "amenity": "school", "religion": null, "shop": null, "tourism": null, "historic": null, "source": "OpenStreetMap" }, "geometry": { "type": "Point", "coordinates": [ 31.3641444, 30.0497203 ] } },
{ "type": "Feature", "properties": { "place_id": "osm-node-10280525304", "name": "مركز الدرة التخصصي للعيون", "name:en": "Durrah Eye Center", "category": "hospital", "amenity": "hospital", "religion": null, "shop": null, "tourism": null, "historic": null, "source": "OpenStreetMap" }, "geometry": { "type": "Point", "coordinates": [ 31.332632, 30.0807161 ] } },
{ "type": "Feature", "properties": { "place_id": "osm-node-11146597841", "name": "Gardenia Mall City Walk", "name:en": null, "category": "mall", "amenity": null, "religion": null, "shop": "mall", "tourism": null, "historic": null, "source": "OpenStreetMap" }, "geometry": { "type": "Point", "coordinates": [ 31.38769, 30.0689895 ] } },
{ "type": "Feature", "properties": { "place_id": "osm-node-11216238083", "name": "Honesta Clinic", "name:en": null, "category": "clinic", "amenity": "clinic", "religion": null, "shop": null, "tourism": null, "historic": null, "source": "OpenStreetMap" }, "geometry": { "type": "Point", "coordinates": [ 31.3465126, 30.0551955 ] } },
{ "type": "Feature", "properties": { "place_id": "osm-node-11228293259", "name": "Gardenia Mosque", "name:en": null, "category": "mosque", "amenity": "place_of_worship", "religion": "muslim", "shop": null, "tourism": null, "historic": null, "source": "OpenStreetMap" }, "geometry": { "type": "Point", "coordinates": [ 31.3951311, 30.0613033 ] } },
{ "type": "Feature", "properties": { "place_id": "osm-node-12113482884", "name": "Advanced Technical School", "name:en": null, "category": "school", "amenity": "school", "religion": null, "shop": null, "tourism": null, "historic": null, "source": "OpenStreetMap" }, "geometry": { "type": "Point", "coordinates": [ 31.3598438, 30.0685605 ] } },
{ "type": "Feature", "properties": { "place_id": "osm-node-12237223201", "name": "Kibeida Academy", "name:en": null, "category": "school", "amenity": "school", "religion": null, "shop": null, "tourism": null, "historic": null, "source": "OpenStreetMap" }, "geometry": { "type": "Point", "coordinates": [ 31.3447414, 30.0587447 ] } },
{ "type": "Feature", "properties": { "place_id": "osm-node-12895489801", "name": "مستشفى عبدالقادر فهمي", "name:en": "Abd Al-Kader Fahmy hospital", "category": "hospital", "amenity": "hospital", "religion": null, "shop": null, "tourism": null, "historic": null, "source": "OpenStreetMap" }, "geometry": { "type": "Point", "coordinates": [ 31.3444783, 30.0784848 ] } },
{ "type": "Feature", "properties": { "place_id": "osm-node-13117051501", "name": "الجامعة المصرية الصينية فرع مدينة نصر", "name:en": null, "category": "university", "amenity": "university", "religion": null, "shop": null, "tourism": null, "historic": null, "source": "OpenStreetMap" }, "geometry": { "type": "Point", "coordinates": [ 31.3590828, 30.0340923 ] } },
{ "type": "Feature", "properties": { "place_id": "osm-node-13117053401", "name": "الجامعة المصرية الصينية فرع مدينة نصر", "name:en": "Egyptian Chinese University", "category": "university", "amenity": "university", "religion": null, "shop": null, "tourism": null, "historic": null, "source": "OpenStreetMap" }, "geometry": { "type": "Point", "coordinates": [ 31.3590828, 30.0340923 ] } },
{ "type": "Feature", "properties": { "place_id": "osm-node-13273052233", "name": "موقع مذبحة رابعة", "name:en": "Site of the Rabaa Massacre", "category": "landmark", "amenity": null, "religion": null, "shop": null, "tourism": null, "historic": "battlefield", "source": "OpenStreetMap" }, "geometry": { "type": "Point", "coordinates": [ 31.3217081, 30.0684755 ] } },
{ "type": "Feature", "properties": { "place_id": "osm-node-13281243302", "name": null, "name:en": null, "category": "landmark", "amenity": null, "religion": null, "shop": null, "tourism": "attraction", "historic": null, "source": "OpenStreetMap" }, "geometry": { "type": "Point", "coordinates": [ 31.3898698, 30.0571454 ] } },
{ "type": "Feature", "properties": { "place_id": "osm-node-13350897022", "name": "قبر محمد مرسي", "name:en": "Grave of Mohammed Morsi", "category": "landmark", "amenity": null, "religion": null, "shop": null, "tourism": null, "historic": "tomb", "source": "OpenStreetMap" }, "geometry": { "type": "Point", "coordinates": [ 31.3519114, 30.0294477 ] } },
{ "type": "Feature", "properties": { "place_id": "osm-node-13905981945", "name": "مسجد حلمي ثابت", "name:en": null, "category": "mosque", "amenity": "place_of_worship", "religion": "muslim", "shop": null, "tourism": null, "historic": null, "source": "OpenStreetMap" }, "geometry": { "type": "Point", "coordinates": [ 31.3312033, 30.082639 ] } },
{ "type": "Feature", "properties": { "place_id": "osm-relation-16662469", "name": "جنينة مول", "name:en": "Genena Mall", "category": "mall", "amenity": null, "religion": null, "shop": "mall", "tourism": null, "historic": null, "source": "OpenStreetMap" }, "geometry": { "type": "Point", "coordinates": [ 31.332150530278948, 30.06092745 ] } },
{ "type": "Feature", "properties": { "place_id": "osm-relation-16717713", "name": "السراج مول 1", "name:en": "Al Serag Mall 1", "category": "mall", "amenity": null, "religion": null, "shop": "mall", "tourism": null, "historic": null, "source": "OpenStreetMap" }, "geometry": { "type": "Point", "coordinates": [ 31.349050191421156, 30.050686 ] } },
{ "type": "Feature", "properties": { "place_id": "osm-relation-16717714", "name": "السراج مول 2", "name:en": "Al Serag Mall 2", "category": "mall", "amenity": null, "religion": null, "shop": "mall", "tourism": null, "historic": null, "source": "OpenStreetMap" }, "geometry": { "type": "Point", "coordinates": [ 31.349311432157748, 30.05082175 ] } },
{ "type": "Feature", "properties": { "place_id": "osm-relation-16717715", "name": "السراج مول 3", "name:en": "Al Serag Mall 3", "category": "mall", "amenity": null, "religion": null, "shop": "mall", "tourism": null, "historic": null, "source": "OpenStreetMap" }, "geometry": { "type": "Point", "coordinates": [ 31.349941281849475, 30.05081295 ] } },
{ "type": "Feature", "properties": { "place_id": "osm-way-29906749", "name": "مجمع البحوث الإسلامية", "name:en": "Islamic Research Centre", "category": "university", "amenity": "university", "religion": null, "shop": null, "tourism": null, "historic": null, "source": "OpenStreetMap" }, "geometry": { "type": "Point", "coordinates": [ 31.3252471152948, 30.0576105 ] } },
{ "type": "Feature", "properties": { "place_id": "osm-way-31264837", "name": "مدرسة عباس العقاد التجريبية للغات", "name:en": "Abbas El-Akkad Language School", "category": "school", "amenity": "school", "religion": null, "shop": null, "tourism": null, "historic": null, "source": "OpenStreetMap" }, "geometry": { "type": "Point", "coordinates": [ 31.330412736950422, 30.0658744 ] } },
{ "type": "Feature", "properties": { "place_id": "osm-way-31820663", "name": "مستشفى تبارك للولادة والأطفال", "name:en": "Tabarak for Children", "category": "hospital", "amenity": "hospital", "religion": null, "shop": null, "tourism": null, "historic": null, "source": "OpenStreetMap" }, "geometry": { "type": "Point", "coordinates": [ 31.33408005, 30.06672815 ] } },
{ "type": "Feature", "properties": { "place_id": "osm-way-32659605", "name": "منارة للبنات", "name:en": "Manara Girls", "category": "school", "amenity": "school", "religion": null, "shop": null, "tourism": null, "historic": null, "source": "OpenStreetMap" }, "geometry": { "type": "Point", "coordinates": [ 31.340562625459206, 30.0665177 ] } },
{ "type": "Feature", "properties": { "place_id": "osm-way-32659617", "name": "مار جرجس", "name:en": "St. George", "category": "school", "amenity": "school", "religion": null, "shop": null, "tourism": null, "historic": null, "source": "OpenStreetMap" }, "geometry": { "type": "Point", "coordinates": [ 31.34087531364051, 30.0642887 ] } },
{ "type": "Feature", "properties": { "place_id": "osm-way-32690925", "name": "منارة بويز", "name:en": "Manara Boys", "category": "school", "amenity": "school", "religion": null, "shop": null, "tourism": null, "historic": null, "source": "OpenStreetMap" }, "geometry": { "type": "Point", "coordinates": [ 31.341348921601906, 30.0609644 ] } },
{ "type": "Feature", "properties": { "place_id": "osm-way-32690944", "name": "الجامعة العربية المفتوحة", "name:en": "Open Arab University", "category": "university", "amenity": "university", "religion": null, "shop": null, "tourism": null, "historic": null, "source": "OpenStreetMap" }, "geometry": { "type": "Point", "coordinates": [ 31.345589408216377, 30.06352895 ] } },
{ "type": "Feature", "properties": { "place_id": "osm-way-32694180", "name": "مستشفى العاملين بقطاع البترول", "name:en": "Petrolium Hospital", "category": "hospital", "amenity": "hospital", "religion": null, "shop": null, "tourism": null, "historic": null, "source": "OpenStreetMap" }, "geometry": { "type": "Point", "coordinates": [ 31.3465194, 30.06463675 ] } },
{ "type": "Feature", "properties": { "place_id": "osm-way-32694193", "name": "د. يس غبد الغقار لأمراض الكبد", "name:en": "Dr. Yassin Abdel Ghafar for kidney", "category": "hospital", "amenity": "hospital", "religion": null, "shop": null, "tourism": null, "historic": null, "source": "OpenStreetMap" }, "geometry": { "type": "Point", "coordinates": [ 31.346821332643536, 30.0644855 ] } },
{ "type": "Feature", "properties": { "place_id": "osm-way-32694384", "name": null, "name:en": null, "category": "school", "amenity": "school", "religion": null, "shop": null, "tourism": null, "historic": null, "source": "OpenStreetMap" }, "geometry": { "type": "Point", "coordinates": [ 31.35337149473197, 30.0628333 ] } },
{ "type": "Feature", "properties": { "place_id": "osm-way-37718145", "name": "الهدي", "name:en": "Al Hady", "category": "mosque", "amenity": "place_of_worship", "religion": "muslim", "shop": null, "tourism": null, "historic": null, "source": "OpenStreetMap" }, "geometry": { "type": "Point", "coordinates": [ 31.344471, 30.0574744 ] } },
{ "type": "Feature", "properties": { "place_id": "osm-way-37789099", "name": "حسبو الدولي", "name:en": "Hasabo International", "category": "hospital", "amenity": "hospital", "religion": null, "shop": null, "tourism": null, "historic": null, "source": "OpenStreetMap" }, "geometry": { "type": "Point", "coordinates": [ 31.349160765426888, 30.06811215 ] } },
{ "type": "Feature", "properties": { "place_id": "osm-way-37798870", "name": "أمير الشعراء", "name:en": "Amir El Shoaraa", "category": "school", "amenity": "school", "religion": null, "shop": null, "tourism": null, "historic": null, "source": "OpenStreetMap" }, "geometry": { "type": "Point", "coordinates": [ 31.35430537941291, 30.05852845 ] } },
{ "type": "Feature", "properties": { "place_id": "osm-way-38071247", "name": "مسجد الشباب", "name:en": "Elshabab Mosque", "category": "mosque", "amenity": "place_of_worship", "religion": "muslim", "shop": null, "tourism": null, "historic": null, "source": "OpenStreetMap" }, "geometry": { "type": "Point", "coordinates": [ 31.332712383529412, 30.0653856 ] } },
{ "type": "Feature", "properties": { "place_id": "osm-way-38071250", "name": "جامع رابعة العدوية", "name:en": "Rabaa Al-Adaweya Mosque", "category": "mosque", "amenity": "place_of_worship", "religion": "muslim", "shop": null, "tourism": null, "historic": null, "source": "OpenStreetMap" }, "geometry": { "type": "Point", "coordinates": [ 31.325815838440249, 30.0668737 ] } },
{ "type": "Feature", "properties": { "place_id": "osm-way-38071251", "name": "مستشفى مدينة نصر التخصصى", "name:en": "Nasr City Specialized Hospital", "category": "hospital", "amenity": "hospital", "religion": null, "shop": null, "tourism": null, "historic": null, "source": "OpenStreetMap" }, "geometry": { "type": "Point", "coordinates": [ 31.326171413722374, 30.06651835 ] } },
{ "type": "Feature", "properties": { "place_id": "osm-way-38072735", "name": "فاطمة الزهراء", "name:en": "Fatma Elzahraa Mosque", "category": "mosque", "amenity": "place_of_worship", "religion": "muslim", "shop": null, "tourism": null, "historic": null, "source": "OpenStreetMap" }, "geometry": { "type": "Point", "coordinates": [ 31.332586460283689, 30.0601345 ] } },
{ "type": "Feature", "properties": { "place_id": "osm-way-38072829", "name": "المعهد الابتدائي النموذجي الأزهري", "name:en": "Elementary Institute of Azhar", "category": "school", "amenity": "school", "religion": null, "shop": null, "tourism": null, "historic": null, "source": "OpenStreetMap" }, "geometry": { "type": "Point", "coordinates": [ 31.329799449791956, 30.0620237 ] } },
{ "type": "Feature", "properties": { "place_id": "osm-way-38449286", "name": "طيبة مول", "name:en": "Tiba Mall", "category": "mall", "amenity": null, "religion": null, "shop": "mall", "tourism": null, "historic": null, "source": "OpenStreetMap" }, "geometry": { "type": "Point", "coordinates": [ 31.329926091697043, 30.06743555 ] } },
{ "type": "Feature", "properties": { "place_id": "osm-way-38658721", "name": "الحق", "name:en": "Al-Haq", "category": "mosque", "amenity": "place_of_worship", "religion": "muslim", "shop": null, "tourism": null, "historic": null, "source": "OpenStreetMap" }, "geometry": { "type": "Point", "coordinates": [ 31.335684473840594, 30.0719492 ] } },
{ "type": "Feature", "properties": { "place_id": "osm-way-40560467", "name": "الإيمان", "name:en": "El Eman", "category": "mosque", "amenity": "place_of_worship", "religion": "muslim", "shop": null, "tourism": null, "historic": null, "source": "OpenStreetMap" }, "geometry": { "type": "Point", "coordinates": [ 31.345394032071248, 30.0642074 ] } },
{ "type": "Feature", "properties": { "place_id": "osm-way-40963224", "name": "مسجد الرحمة", "name:en": "Al-Rahma Mosque", "category": "mosque", "amenity": "place_of_worship", "religion": "muslim", "shop": null, "tourism": null, "historic": null, "source": "OpenStreetMap" }, "geometry": { "type": "Point", "coordinates": [ 31.333189044993819, 30.05367995 ] } },
{ "type": "Feature", "properties": { "place_id": "osm-way-41036162", "name": null, "name:en": null, "category": "school", "amenity": "school", "religion": null, "shop": null, "tourism": null, "historic": null, "source": "OpenStreetMap" }, "geometry": { "type": "Point", "coordinates": [ 31.327882730203573, 30.06125085 ] } },
{ "type": "Feature", "properties": { "place_id": "osm-way-41036163", "name": null, "name:en": null, "category": "mosque", "amenity": "place_of_worship", "religion": "muslim", "shop": null, "tourism": null, "historic": null, "source": "OpenStreetMap" }, "geometry": { "type": "Point", "coordinates": [ 31.328334677225648, 30.0612939 ] } },
{ "type": "Feature", "properties": { "place_id": "osm-way-41672934", "name": "مسجد الغفران", "name:en": "Al Ghofran Mosque", "category": "mosque", "amenity": "place_of_worship", "religion": "muslim", "shop": null, "tourism": null, "historic": null, "source": "OpenStreetMap" }, "geometry": { "type": "Point", "coordinates": [ 31.363872715970931, 30.0540188 ] } },
{ "type": "Feature", "properties": { "place_id": "osm-way-42682259", "name": "مسجد القوات المسلحة", "name:en": "Armed Forces Mosque", "category": "mosque", "amenity": "place_of_worship", "religion": "muslim", "shop": null, "tourism": null, "historic": null, "source": "OpenStreetMap" }, "geometry": { "type": "Point", "coordinates": [ 31.344011899862068, 30.07508895 ] } },
{ "type": "Feature", "properties": { "place_id": "osm-way-51799418", "name": "سانت فاتيما", "name:en": "St. Fatima", "category": "school", "amenity": "school", "religion": null, "shop": null, "tourism": null, "historic": null, "source": "OpenStreetMap" }, "geometry": { "type": "Point", "coordinates": [ 31.333686280527374, 30.05892585 ] } },
{ "type": "Feature", "properties": { "place_id": "osm-way-51799433", "name": "الزهراء", "name:en": "El-Zahraa", "category": "hospital", "amenity": "hospital", "religion": null, "shop": null, "tourism": null, "historic": null, "source": "OpenStreetMap" }, "geometry": { "type": "Point", "coordinates": [ 31.3316957, 30.0603801 ] } },
{ "type": "Feature", "properties": { "place_id": "osm-way-54291727", "name": "Nasr City First Police Station", "name:en": null, "category": "police", "amenity": "police", "religion": null, "shop": null, "tourism": null, "historic": null, "source": "OpenStreetMap" }, "geometry": { "type": "Point", "coordinates": [ 31.34128365, 30.0687397 ] } },
{ "type": "Feature", "properties": { "place_id": "osm-way-59622137", "name": "مستشفي دار الحكمة", "name:en": "Dar Al-Hekma Hospital", "category": "hospital", "amenity": "hospital", "religion": null, "shop": null, "tourism": null, "historic": null, "source": "OpenStreetMap" }, "geometry": { "type": "Point", "coordinates": [ 31.338049787240962, 30.0658427 ] } },
{ "type": "Feature", "properties": { "place_id": "osm-way-81564324", "name": "مستشفى صفوة الجولف", "name:en": "Safwat Al-Golf Hospital", "category": "hospital", "amenity": "hospital", "religion": null, "shop": null, "tourism": null, "historic": null, "source": "OpenStreetMap" }, "geometry": { "type": "Point", "coordinates": [ 31.335932837445302, 30.08370105 ] } },
{ "type": "Feature", "properties": { "place_id": "osm-way-81564563", "name": "ام النور", "name:en": "Um Al-Nour", "category": "hospital", "amenity": "hospital", "religion": null, "shop": null, "tourism": null, "historic": null, "source": "OpenStreetMap" }, "geometry": { "type": "Point", "coordinates": [ 31.33387715, 30.0822412 ] } },
{ "type": "Feature", "properties": { "place_id": "osm-way-119053265", "name": "مدرسة الطلائع الإسلامية للغات", "name:en": "Al-Tala'ee Al-Islameya Language School", "category": "school", "amenity": "school", "religion": null, "shop": null, "tourism": null, "historic": null, "source": "OpenStreetMap" }, "geometry": { "type": "Point", "coordinates": [ 31.333857910807389, 30.08330855 ] } },
{ "type": "Feature", "properties": { "place_id": "osm-way-119053267", "name": "الهادى", "name:en": "El Hady", "category": "mosque", "amenity": "place_of_worship", "religion": "muslim", "shop": null, "tourism": null, "historic": null, "source": "OpenStreetMap" }, "geometry": { "type": "Point", "coordinates": [ 31.334536852387913, 30.0848563 ] } },
{ "type": "Feature", "properties": { "place_id": "osm-way-178543142", "name": "Mousa Ibn Naseer Mosque", "name:en": "Moussa Ibn Nosseir Mosque", "category": "mosque", "amenity": "place_of_worship", "religion": "muslim", "shop": null, "tourism": null, "historic": null, "source": "OpenStreetMap" }, "geometry": { "type": "Point", "coordinates": [ 31.32962065, 30.0471349 ] } },
{ "type": "Feature", "properties": { "place_id": "osm-way-284147372", "name": "سيتى ستارز مول", "name:en": "City Stars Mall", "category": "mall", "amenity": null, "religion": null, "shop": "mall", "tourism": null, "historic": null, "source": "OpenStreetMap" }, "geometry": { "type": "Point", "coordinates": [ 31.345869302989037, 30.07326805 ] } },
{ "type": "Feature", "properties": { "place_id": "osm-way-362097177", "name": null, "name:en": null, "category": "mosque", "amenity": "place_of_worship", "religion": "muslim", "shop": null, "tourism": null, "historic": null, "source": "OpenStreetMap" }, "geometry": { "type": "Point", "coordinates": [ 31.371479797882859, 30.01951495 ] } },
{ "type": "Feature", "properties": { "place_id": "osm-way-363500755", "name": null, "name:en": null, "category": "mosque", "amenity": "place_of_worship", "religion": "muslim", "shop": null, "tourism": null, "historic": null, "source": "OpenStreetMap" }, "geometry": { "type": "Point", "coordinates": [ 31.338909270394737, 30.04251415 ] } },
{ "type": "Feature", "properties": { "place_id": "osm-way-366083764", "name": "مدارس فيوتشر للغات", "name:en": "Future Language School", "category": "school", "amenity": "school", "religion": null, "shop": null, "tourism": null, "historic": null, "source": "OpenStreetMap" }, "geometry": { "type": "Point", "coordinates": [ 31.349064188460225, 30.04419065 ] } },
{ "type": "Feature", "properties": { "place_id": "osm-way-366083765", "name": "قرية الأطفال إس أو إس", "name:en": "Children Village S.O.S.", "category": "school", "amenity": "school", "religion": null, "shop": null, "tourism": null, "historic": null, "source": "OpenStreetMap" }, "geometry": { "type": "Point", "coordinates": [ 31.346862410466514, 30.04397195 ] } },
{ "type": "Feature", "properties": { "place_id": "osm-way-366083767", "name": "مسجد السلام", "name:en": null, "category": "mosque", "amenity": "place_of_worship", "religion": "muslim", "shop": null, "tourism": null, "historic": null, "source": "OpenStreetMap" }, "geometry": { "type": "Point", "coordinates": [ 31.35567517292106, 30.04581965 ] } },
{ "type": "Feature", "properties": { "place_id": "osm-way-378890890", "name": "مسجد الرحمة", "name:en": null, "category": "mosque", "amenity": "place_of_worship", "religion": "muslim", "shop": null, "tourism": null, "historic": null, "source": "OpenStreetMap" }, "geometry": { "type": "Point", "coordinates": [ 31.373108629429758, 30.0403844 ] } },
{ "type": "Feature", "properties": { "place_id": "osm-way-397057595", "name": "برج معمل الفا لاب الطبى", "name:en": null, "category": "hospital", "amenity": "hospital", "religion": null, "shop": null, "tourism": null, "historic": null, "source": "OpenStreetMap" }, "geometry": { "type": "Point", "coordinates": [ 31.378350657378334, 30.04929315 ] } },
{ "type": "Feature", "properties": { "place_id": "osm-way-455460859", "name": "مدرسة عبد العزيز جاويش الابتدائية المشتركة", "name:en": "Abdulaziz Gawish Primary School", "category": "school", "amenity": "school", "religion": null, "shop": null, "tourism": null, "historic": null, "source": "OpenStreetMap" }, "geometry": { "type": "Point", "coordinates": [ 31.323146865231642, 30.06870355 ] } },
{ "type": "Feature", "properties": { "place_id": "osm-way-455460866", "name": "مدرسة الشهيد أحمد تعلب الفندقية للتكنولوجيا التطبيقية", "name:en": null, "category": "school", "amenity": "school", "religion": null, "shop": null, "tourism": null, "historic": null, "source": "OpenStreetMap" }, "geometry": { "type": "Point", "coordinates": [ 31.323080295053224, 30.06915105 ] } },
{ "type": "Feature", "properties": { "place_id": "osm-way-455464036", "name": "نقطة شرطة رابعة العدوية", "name:en": "Rabaa Al Adaweya Police Point", "category": "police", "amenity": "police", "religion": null, "shop": null, "tourism": null, "historic": null, "source": "OpenStreetMap" }, "geometry": { "type": "Point", "coordinates": [ 31.321816717056738, 30.06901235 ] } },
{ "type": "Feature", "properties": { "place_id": "osm-way-455464043", "name": "عبير الإسلام", "name:en": null, "category": "mosque", "amenity": "place_of_worship", "religion": "muslim", "shop": null, "tourism": null, "historic": null, "source": "OpenStreetMap" }, "geometry": { "type": "Point", "coordinates": [ 31.322319792301464, 30.06907585 ] } },
{ "type": "Feature", "properties": { "place_id": "osm-way-455464044", "name": "مدرسة عبير الإسلام الخاصة", "name:en": null, "category": "school", "amenity": "school", "religion": null, "shop": null, "tourism": null, "historic": null, "source": "OpenStreetMap" }, "geometry": { "type": "Point", "coordinates": [ 31.322651751156279, 30.0691216 ] } },
{ "type": "Feature", "properties": { "place_id": "osm-way-455471291", "name": "مدرسة المستقبل الرسمية المتميزة للغات", "name:en": "El Mostaqbal Primary Experimental Language School", "category": "school", "amenity": "school", "religion": null, "shop": null, "tourism": null, "historic": null, "source": "OpenStreetMap" }, "geometry": { "type": "Point", "coordinates": [ 31.323791234832512, 30.06348165 ] } },
{ "type": "Feature", "properties": { "place_id": "osm-way-468839686", "name": "المعهد العالي للخدمة الاجتماعيه", "name:en": "The High Institute For Social Services", "category": "university", "amenity": "university", "religion": null, "shop": null, "tourism": null, "historic": null, "source": "OpenStreetMap" }, "geometry": { "type": "Point", "coordinates": [ 31.352579116043266, 30.06801555 ] } },
{ "type": "Feature", "properties": { "place_id": "osm-way-620531300", "name": "مستشفى التأمين الصحى", "name:en": null, "category": "hospital", "amenity": "hospital", "religion": null, "shop": null, "tourism": null, "historic": null, "source": "OpenStreetMap" }, "geometry": { "type": "Point", "coordinates": [ 31.324980992998857, 30.05953725 ] } },
{ "type": "Feature", "properties": { "place_id": "osm-way-722596449", "name": "مسجد نور الرحمن", "name:en": "Masjid Nur-Rahman", "category": "mosque", "amenity": "place_of_worship", "religion": "muslim", "shop": null, "tourism": null, "historic": null, "source": "OpenStreetMap" }, "geometry": { "type": "Point", "coordinates": [ 31.370670943644846, 30.04137765 ] } },
{ "type": "Feature", "properties": { "place_id": "osm-way-722597240", "name": "مسجد نور محمد", "name:en": null, "category": "mosque", "amenity": "place_of_worship", "religion": "muslim", "shop": null, "tourism": null, "historic": null, "source": "OpenStreetMap" }, "geometry": { "type": "Point", "coordinates": [ 31.367447913080497, 30.04325365 ] } },
{ "type": "Feature", "properties": { "place_id": "osm-way-754195215", "name": "ادارة معاهد الأزهر التعليمية", "name:en": null, "category": "school", "amenity": "school", "religion": null, "shop": null, "tourism": null, "historic": null, "source": "OpenStreetMap" }, "geometry": { "type": "Point", "coordinates": [ 31.34264531266302, 30.05210455 ] } },
{ "type": "Feature", "properties": { "place_id": "osm-way-770596616", "name": "مدرسة القاهرة الدولية", "name:en": null, "category": "school", "amenity": "school", "religion": null, "shop": null, "tourism": null, "historic": null, "source": "OpenStreetMap" }, "geometry": { "type": "Point", "coordinates": [ 31.36510175, 30.0583083 ] } },
{ "type": "Feature", "properties": { "place_id": "osm-way-771526399", "name": "بلال", "name:en": "Belal", "category": "mosque", "amenity": "place_of_worship", "religion": "muslim", "shop": null, "tourism": null, "historic": null, "source": "OpenStreetMap" }, "geometry": { "type": "Point", "coordinates": [ 31.34338395, 30.0493942 ] } },
{ "type": "Feature", "properties": { "place_id": "osm-way-771793286", "name": "مسجد الفتح", "name:en": null, "category": "mosque", "amenity": "place_of_worship", "religion": "muslim", "shop": null, "tourism": null, "historic": null, "source": "OpenStreetMap" }, "geometry": { "type": "Point", "coordinates": [ 31.320235608628707, 30.0747452 ] } },
{ "type": "Feature", "properties": { "place_id": "osm-way-771799490", "name": "مسجد صقر قريش", "name:en": null, "category": "mosque", "amenity": "place_of_worship", "religion": "muslim", "shop": null, "tourism": null, "historic": null, "source": "OpenStreetMap" }, "geometry": { "type": "Point", "coordinates": [ 31.373414309849196, 30.04267935 ] } },
{ "type": "Feature", "properties": { "place_id": "osm-way-774909376", "name": "مدرسة المنهل الخاصة", "name:en": null, "category": "school", "amenity": "school", "religion": null, "shop": null, "tourism": null, "historic": null, "source": "OpenStreetMap" }, "geometry": { "type": "Point", "coordinates": [ 31.357966110616957, 30.05541915 ] } },
{ "type": "Feature", "properties": { "place_id": "osm-way-807246479", "name": "صن مول", "name:en": null, "category": "mall", "amenity": null, "religion": null, "shop": "mall", "tourism": null, "historic": null, "source": "OpenStreetMap" }, "geometry": { "type": "Point", "coordinates": [ 31.321666319495339, 30.07046975 ] } },
{ "type": "Feature", "properties": { "place_id": "osm-way-807246480", "name": "مسجد التوفيق", "name:en": null, "category": "mosque", "amenity": "place_of_worship", "religion": "muslim", "shop": null, "tourism": null, "historic": null, "source": "OpenStreetMap" }, "geometry": { "type": "Point", "coordinates": [ 31.3217633, 30.0724109 ] } },
{ "type": "Feature", "properties": { "place_id": "osm-way-984855104", "name": "شركة تطبيق حكيمة لخدمات التمريض المنزلي", "name:en": null, "category": "hospital", "amenity": "hospital", "religion": null, "shop": null, "tourism": null, "historic": null, "source": "OpenStreetMap" }, "geometry": { "type": "Point", "coordinates": [ 31.33173168216204, 30.0641266 ] } },
{ "type": "Feature", "properties": { "place_id": "osm-way-1069963278", "name": "مسجد الشهيد اللواء ماجد صالح", "name:en": null, "category": "mosque", "amenity": "place_of_worship", "religion": "muslim", "shop": null, "tourism": null, "historic": null, "source": "OpenStreetMap" }, "geometry": { "type": "Point", "coordinates": [ 31.401447464966786, 30.04336695 ] } },
{ "type": "Feature", "properties": { "place_id": "osm-way-1122858087", "name": null, "name:en": null, "category": "mosque", "amenity": "place_of_worship", "religion": "muslim", "shop": null, "tourism": null, "historic": null, "source": "OpenStreetMap" }, "geometry": { "type": "Point", "coordinates": [ 31.345882782488552, 30.0706627 ] } },
{ "type": "Feature", "properties": { "place_id": "osm-way-1125052028", "name": null, "name:en": null, "category": "mosque", "amenity": "place_of_worship", "religion": "muslim", "shop": null, "tourism": null, "historic": null, "source": "OpenStreetMap" }, "geometry": { "type": "Point", "coordinates": [ 31.326543941702646, 30.05293475 ] } },
{ "type": "Feature", "properties": { "place_id": "osm-way-1222209721", "name": "مسجد المروة", "name:en": "Al-Marwa Mosque", "category": "mosque", "amenity": "place_of_worship", "religion": "muslim", "shop": null, "tourism": null, "historic": null, "source": "OpenStreetMap" }, "geometry": { "type": "Point", "coordinates": [ 31.327778437155764, 30.07933845 ] } },
{ "type": "Feature", "properties": { "place_id": "osm-way-1227159648", "name": null, "name:en": null, "category": "mall", "amenity": null, "religion": null, "shop": "mall", "tourism": null, "historic": null, "source": "OpenStreetMap" }, "geometry": { "type": "Point", "coordinates": [ 31.338694020855314, 30.04815455 ] } },
{ "type": "Feature", "properties": { "place_id": "osm-way-1227523422", "name": null, "name:en": null, "category": "mosque", "amenity": "place_of_worship", "religion": "muslim", "shop": null, "tourism": null, "historic": null, "source": "OpenStreetMap" }, "geometry": { "type": "Point", "coordinates": [ 31.337061526704545, 30.04662215 ] } },
{ "type": "Feature", "properties": { "place_id": "osm-way-1250096089", "name": null, "name:en": null, "category": "mosque", "amenity": "place_of_worship", "religion": "muslim", "shop": null, "tourism": null, "historic": null, "source": "OpenStreetMap" }, "geometry": { "type": "Point", "coordinates": [ 31.344017448351281, 30.0807578 ] } },
{ "type": "Feature", "properties": { "place_id": "osm-way-1339212873", "name": null, "name:en": null, "category": "mosque", "amenity": "place_of_worship", "religion": "muslim", "shop": null, "tourism": null, "historic": null, "source": "OpenStreetMap" }, "geometry": { "type": "Point", "coordinates": [ 31.382446601730326, 30.01745365 ] } },
{ "type": "Feature", "properties": { "place_id": "osm-way-1339212903", "name": "مسجد المشير طنطاوي", "name:en": "El Mosheer Tantawy Mosque", "category": "landmark", "amenity": null, "religion": "muslim", "shop": null, "tourism": "attraction", "historic": null, "source": "OpenStreetMap" }, "geometry": { "type": "Point", "coordinates": [ 31.383076760069134, 30.01793255 ] } },
{ "type": "Feature", "properties": { "place_id": "osm-way-1360036602", "name": null, "name:en": null, "category": "mosque", "amenity": "place_of_worship", "religion": "muslim", "shop": null, "tourism": null, "historic": null, "source": "OpenStreetMap" }, "geometry": { "type": "Point", "coordinates": [ 31.338230045307483, 30.06772385 ] } },
{ "type": "Feature", "properties": { "place_id": "osm-way-1396080949", "name": null, "name:en": null, "category": "school", "amenity": "school", "religion": null, "shop": null, "tourism": null, "historic": null, "source": "OpenStreetMap" }, "geometry": { "type": "Point", "coordinates": [ 31.353590416366053, 30.0584219 ] } },
{ "type": "Feature", "properties": { "place_id": "osm-way-1428551185", "name": "مستشفي الماسة", "name:en": "Al MASSA hospital", "category": "hospital", "amenity": "hospital", "religion": null, "shop": null, "tourism": null, "historic": null, "source": "OpenStreetMap" }, "geometry": { "type": "Point", "coordinates": [ 31.379199527826941, 30.0532517 ] } }
]
}
