{
"type": "FeatureCollection",
"name": "demo_route_top_rain_normal",
"crs": { "type": "name", "properties": { "name": "urn:ogc:def:crs:OGC:1.3:CRS84" } },
"features": [
{ "type": "Feature", "properties": { "route_type": "normal", "event_type": "top-rain", "event_id": "evt_0557", "timestamp": "2020-03-13T01:00:00", "distance_m": 2847.2089113963943, "base_eta_sec": 203.25886136271157, "weather_eta_sec": 1852.4786936402775, "mean_risk_score": 0.83455920754540758, "high_risk_segment_count": 36, "origin_lon": 31.382892334519269, "origin_lat": 30.066338613244326, "destination_lon": 31.3689579, "destination_lat": 30.0672492, "destination_facility_name": "Nasr City Emergency Fire_station", "honesty_note": "Routes are decision-support prototype outputs, not official emergency dispatch instructions." }, "geometry": { "type": "LineString", "coordinates": [ [ 31.3828691, 30.0662597 ], [ 31.3827417, 30.0659722 ], [ 31.382845, 30.0659328 ], [ 31.3825446, 30.0656169 ], [ 31.3822814, 30.0653399 ], [ 31.3819518, 30.0649932 ], [ 31.3818626, 30.0648993 ], [ 31.3815397, 30.0645595 ], [ 31.3810434, 30.064053 ], [ 31.3806643, 30.0636358 ], [ 31.380141, 30.0630237 ], [ 31.3800231, 30.0628704 ], [ 31.379665, 30.0625702 ], [ 31.3791066, 30.0626377 ], [ 31.3790717, 30.0625929 ], [ 31.3786501, 30.0621144 ], [ 31.3776653, 30.0610505 ], [ 31.3773153, 30.0608044 ], [ 31.3766269, 30.0612897 ], [ 31.3759603, 30.0617606 ], [ 31.3758724, 30.0618227 ], [ 31.3753669, 30.0621798 ], [ 31.3750718, 30.0623883 ], [ 31.3745822, 30.0627342 ], [ 31.3745584, 30.0628574 ], [ 31.3752643, 30.063591 ], [ 31.3755203, 30.0638643 ], [ 31.3755549, 30.0639242 ], [ 31.3755552, 30.0643307 ], [ 31.3748829, 30.0659173 ], [ 31.3748758, 30.0664447 ], [ 31.3726236, 30.0688329 ], [ 31.3722872, 30.0690761 ], [ 31.3696963, 30.067758 ], [ 31.3688278, 30.0660735 ], [ 31.3683484, 30.0661166 ], [ 31.368554, 30.0671566 ] ] } }
]
}
