{
"type": "FeatureCollection",
"name": "demo_route_top_rain_safe",
"crs": { "type": "name", "properties": { "name": "urn:ogc:def:crs:OGC:1.3:CRS84" } },
"features": [
{ "type": "Feature", "properties": { "route_type": "weather_safe", "event_type": "top-rain", "event_id": "evt_0557", "timestamp": "2020-03-13T01:00:00", "distance_m": 3896.0824221072498, "base_eta_sec": 220.27263676510623, "weather_eta_sec": 1832.9117506987623, "mean_risk_score": 0.83762210572463525, "high_risk_segment_count": 45, "origin_lon": 31.382892334519269, "origin_lat": 30.066338613244326, "destination_lon": 31.3689579, "destination_lat": 30.0672492, "destination_facility_name": "Nasr City Emergency Fire_station", "honesty_note": "Routes are decision-support prototype outputs, not official emergency dispatch instructions." }, "geometry": { "type": "LineString", "coordinates": [ [ 31.3828691, 30.0662597 ], [ 31.3827417, 30.0659722 ], [ 31.382845, 30.0659328 ], [ 31.3825446, 30.0656169 ], [ 31.3822814, 30.0653399 ], [ 31.3819518, 30.0649932 ], [ 31.3818626, 30.0648993 ], [ 31.3815397, 30.0645595 ], [ 31.3810434, 30.064053 ], [ 31.3806643, 30.0636358 ], [ 31.380141, 30.0630237 ], [ 31.3800231, 30.0628704 ], [ 31.379665, 30.0625702 ], [ 31.3791066, 30.0626377 ], [ 31.3790717, 30.0625929 ], [ 31.3786501, 30.0621144 ], [ 31.3776653, 30.0610505 ], [ 31.3773153, 30.0608044 ], [ 31.377108, 30.0606876 ], [ 31.3771146, 30.060521 ], [ 31.3765932, 30.0599612 ], [ 31.3754545, 30.0587475 ], [ 31.3751998, 30.0584535 ], [ 31.3748573, 30.0580942 ], [ 31.3745639, 30.0578609 ], [ 31.3721771, 30.0575321 ], [ 31.3695102, 30.0572333 ], [ 31.3692484, 30.0572041 ], [ 31.3691674, 30.0571939 ], [ 31.3689445, 30.0571682 ], [ 31.3669799, 30.0569513 ], [ 31.3647692, 30.0567025 ], [ 31.3646675, 30.0568721 ], [ 31.3645958, 30.0574845 ], [ 31.3645536, 30.0578608 ], [ 31.3645265, 30.059148 ], [ 31.3646812, 30.0591775 ], [ 31.3647579, 30.059502 ], [ 31.3646448, 30.059577 ], [ 31.3643813, 30.0608417 ], [ 31.3643815, 30.0612453 ], [ 31.3651675, 30.0653033 ], [ 31.3654524, 30.065562 ], [ 31.3677231, 30.0657098 ], [ 31.3692284, 30.0659535 ], [ 31.3688278, 30.0660735 ], [ 31.3683484, 30.0661166 ], [ 31.368554, 30.0671566 ] ] } }
]
}
