{
"type": "FeatureCollection",
"name": "demo_route_latest_safe",
"crs": { "type": "name", "properties": { "name": "urn:ogc:def:crs:OGC:1.3:CRS84" } },
"features": [
{ "type": "Feature", "properties": { "route_type": "weather_safe", "event_type": "latest", "event_id": "evt_dry_009", "timestamp": "2024-02-20T00:00", "distance_m": 6276.740287393558, "base_eta_sec": 377.35308248614194, "weather_eta_sec": 694.22531025054138, "mean_risk_score": 0.38328497628296443, "high_risk_segment_count": 0, "origin_lon": 31.378400758098667, "origin_lat": 30.066338613244326, "destination_lon": 31.349160765426888, "destination_lat": 30.06811215, "destination_facility_name": "حسبو الدولي", "honesty_note": "Routes are decision-support prototype outputs, not official emergency dispatch instructions." }, "geometry": { "type": "LineString", "coordinates": [ [ 31.3786158, 30.0663962 ], [ 31.3787219, 30.0661875 ], [ 31.3792257, 30.0663176 ], [ 31.3796252, 30.0664255 ], [ 31.3797547, 30.0661728 ], [ 31.3802443, 30.0664423 ], [ 31.38048, 30.0665187 ], [ 31.3807253, 30.0665956 ], [ 31.3807029, 30.0667599 ], [ 31.380658, 30.0673778 ], [ 31.3806176, 30.0677008 ], [ 31.3805772, 30.0679002 ], [ 31.3805492, 30.0680229 ], [ 31.3804889, 30.0683151 ], [ 31.3804095, 30.0686486 ], [ 31.3801321, 30.0693785 ], [ 31.380037, 30.0697099 ], [ 31.379964, 30.0699641 ], [ 31.3797041, 30.0704458 ], [ 31.3788933, 30.0712123 ], [ 31.3779563, 30.0732308 ], [ 31.3778354, 30.0739016 ], [ 31.3779091, 30.0740078 ], [ 31.3778363, 30.0743968 ], [ 31.3777697, 30.0744522 ], [ 31.3773041, 30.074495 ], [ 31.3771327, 30.0739312 ], [ 31.3766831, 30.073348 ], [ 31.3715221, 30.0739552 ], [ 31.3708694, 30.0740983 ], [ 31.3702465, 30.0741502 ], [ 31.3695947, 30.0741149 ], [ 31.3683965, 30.0741677 ], [ 31.3681721, 30.0742 ], [ 31.3663322, 30.0743736 ], [ 31.3661827, 30.0743803 ], [ 31.3614886, 30.0748439 ], [ 31.361254, 30.0749315 ], [ 31.3609164, 30.0759307 ], [ 31.3607967, 30.0757755 ], [ 31.3607943, 30.0724777 ], [ 31.3607734, 30.0722987 ], [ 31.3602663, 30.0679102 ], [ 31.3600697, 30.0677115 ], [ 31.3569456, 30.0679289 ], [ 31.3548298, 30.0709708 ], [ 31.3546793, 30.0711259 ], [ 31.354124, 30.0713873 ], [ 31.3538922, 30.0712673 ], [ 31.3523296, 30.0706538 ], [ 31.3516482, 30.0704702 ], [ 31.3510372, 30.07034 ], [ 31.3505641, 30.0702629 ], [ 31.3499747, 30.0701965 ], [ 31.3495385, 30.070151 ], [ 31.349154, 30.0701087 ], [ 31.3485954, 30.0701056 ], [ 31.3484286, 30.0714848 ], [ 31.3483819, 30.0720731 ], [ 31.3482719, 30.0732988 ], [ 31.3480664, 30.0732753 ], [ 31.34818, 30.072152 ], [ 31.3482189, 30.0717904 ], [ 31.3482786, 30.0711083 ], [ 31.3484124, 30.0700988 ], [ 31.3484957, 30.0694517 ], [ 31.3486469, 30.0682971 ], [ 31.348674, 30.068138 ] ] } }
]
}
